#aV2020  7 29  0  0  0.00000000     288 DD+AD WGS84 FIT  NGA
## 2116 259200.00000000   300.00000000 59059 0.0000000000000
+   31     1  2  3  4  5  6  7  8  9 10 11 12 13 15 16 17 18
+         19 20 21 22 23 24 25 26 27 28 29 30 31 32  0  0  0
+          0  0  0  0  0  0  0  0  0  0  0  0  0  0  0  0  0
+          0  0  0  0  0  0  0  0  0  0  0  0  0  0  0  0  0
+          0  0  0  0  0  0  0  0  0  0  0  0  0  0  0  0  0
++         2  2  2  2  2  2  2  2  2  2  2  2  2  2  2  2  2
++         2  2  2  2  2  2  2  2  2  2  2  2  2  2  0  0  0
++         0  0  0  0  0  0  0  0  0  0  0  0  0  0  0  0  0
++         0  0  0  0  0  0  0  0  0  0  0  0  0  0  0  0  0
++         0  0  0  0  0  0  0  0  0  0  0  0  0  0  0  0  0
%c cc cc ccc ccc cccc cccc cccc cccc ccccc ccccc ccccc ccccc
%c cc cc ccc ccc cccc cccc cccc cccc ccccc ccccc ccccc ccccc
%f  0.0000000  0.000000000  0.00000000000  0.000000000000000
%f  0.0000000  0.000000000  0.00000000000  0.000000000000000
%i    0    0    0    0      0      0      0      0         0
%i    0    0    0    0      0      0      0      0         0
/*      NGA, ST. LOUIS,MO.                                  
/*   EPHEMERIS COMPUTED FROM 2 DAYS OF DATA                 
/*   EPOCHA v5 SMOOTHER                                     
/*   G1762 IERS2010 SATAF SATAPC                            
*  2020  7 29  2 45  0.00000000
P  1 -16593.825736  -4928.607698  20009.330248     29.758579                    
V  1  -9240.768552 -24071.831755 -13114.092705      0.032042                    
P  2  14113.258962  22147.298862  -3471.039647   -494.205000                    
V  2   -168.188603   5921.478015  31299.480071     -0.055904                    
P  3 -19351.350100   6348.665176  16922.311923   -253.857544                    
V  3  11584.930355 -18374.710288  20156.054187     -0.113402                    
P  4 -25931.513413    169.540433  -5814.474560   -118.088892                    
V  4  -6898.012704  -3802.696737  30559.746381     -0.045126                    
P  5   9247.162603  13126.108029 -21275.029547    -17.640542                    
V  5 -15895.465210  21506.373697   6596.755704     -0.008122                    
P  6   5146.440061  24915.716317   7600.880932   -309.078297                    
V  6  -5693.689394  -7976.529536  30238.191693     -0.047003                    
P  7  -9733.624849  13778.474372 -20074.291878   -337.896155                    
V  7 -11386.573266 -23819.296431 -11141.950254     -0.085888                    
P  8 -25303.673654  -6444.181209  -5558.303163    -42.591261                    
V  8   7207.734205  -1522.924598 -30737.054034     -0.013819                    
P  9 -19591.941737   9079.108146 -15526.421679   -261.459186                    
V  9 -19318.501798  -4125.236136  22020.229888     -0.062749                    
P 10   9990.018602 -23046.703012   8328.490215   -412.673272                    
V 10   8378.969637  -6874.594799 -29619.974702     -0.104885                    
P 11 -22605.596679  -9636.469791   9155.360970   -208.031827                    
V 11  -6871.856393 -11274.348640 -27726.450566      0.106375                    
P 12  19400.326776  -4709.009644  17207.389634     87.689539                    
V 12 -13417.779128  17914.977823  19907.525167     -0.049166                    
P 13  19847.086735  13354.736433 -11770.522093     30.881071                    
V 13 -14777.718128  -1565.133397 -26866.530469      0.033793                    
P 15  25971.165340   4209.863000  -5223.865185   -214.346937                    
V 15  -6233.422418   3289.508653 -29845.382232      0.025916                    
P 16 -10219.779920 -10941.376172 -22139.774214   -188.663338                    
V 16  18637.332784 -20298.008454   1874.545648     -0.048360                    
P 17  -3196.237501  14569.070427  22400.011966    302.948443                    
V 17 -26916.412960  -4857.567511   -737.312100      0.056911                    
P 18   9381.912893 -14383.874111 -20265.896961    257.502936                    
V 18  10497.916808  23482.080433 -11847.576909      0.088641                    
P 19   5353.265652  15378.222200  20695.673302   -125.768061                    
V 19 -26398.004340  -5204.139573  10495.494426      0.050667                    
P 20  15321.776273 -21135.252812  -4240.664992    527.187333                    
V 20    685.183053   6496.933022 -30697.787593     -0.000888                    
P 21  -7604.846408 -24641.897618  -6271.088539     29.264722                    
V 21   6525.090087   6625.634688 -30046.375318      0.044842                    
P 22 -17044.634230  -1402.625816  20495.992298   -768.593875                    
V 22  12572.654206 -22456.589236   9156.250784      0.029278                    
P 23  16003.372259 -21167.725809  -1111.497921     21.032642                    
V 23   1483.986405   2744.690470 -31730.599781      0.141974                    
P 24  18244.348213   6529.277235  18118.861750    -16.330757                    
V 24   8965.889146  21648.989578 -16274.435581     -0.006048                    
P 25  19475.056657 -14955.497876   9551.018919     28.716686                    
V 25  -5386.413015  11638.919000  28756.751042      0.045087                    
P 26    153.338022 -20868.954268 -16329.119502    251.697155                    
V 26  13731.127476 -15796.953169  20582.560468      0.067333                    
P 27 -18392.208194 -12368.984498 -15026.765773   -357.599382                    
V 27  18691.576272    786.521077 -23431.087986     -0.094588                    
P 28 -10546.970641  22313.287921  10588.938099    695.035242                    
V 28  -9713.797230   8093.252039 -28148.839395     -0.037746                    
P 29  22801.696010  -4410.700242 -12971.941575   -160.667124                    
V 29  15750.823184   4636.484207  26158.389904     -0.083773                    
P 30  -2366.275806  22276.361134 -14049.541648   -271.428305                    
V 30  -9212.915115 -15802.946928 -23637.695269     -0.075719                    
P 31  -5716.264802 -25062.556474   5593.649947    -58.643769                    
V 31   5683.192056   5548.913063  30881.608143     -0.024668                    
P 32   1516.014894 -15269.438186  21766.822973    324.423271                    
V 32  27270.342069   3098.703595    128.328149      0.058699                    
EOF
